[Satellite]
VERSION=1.1
NAME=IRIDIUM 13 [+]
NICKNAME=IRIDIUM 13 [+]
TLE1=1 24840U 97030E   15055.34483372  .00000472  00000-0  16138-3 0  9992
TLE2=2 24840  86.4006 342.9350 0002295  97.1024  30.7231 14.34221955925997
